{
  "type": "FeatureCollection",
  "features": [
    {
      "type": "Feature",
      "properties": {
        "norad_id": 55268,
        "name": "GPS BIII-6  (PRN 28)",
        "group": "gnss",
        "lat": -42.37471966939034,
        "lon": 116.36867829281393,
        "alt_km": 20181.93744005172,
        "timestamp": "2025-12-10T09:57:44.943555+00:00",
        "meta_object_name": "GPS BIII-6  (PRN 28)",
        "meta_object_id": "2023-009A",
        "meta_epoch": "2025-12-08T05:52:26.989248",
        "meta_mean_motion": 2.00555991,
        "meta_eccentricity": 0.0003615,
        "meta_inclination": 55.1046,
        "meta_ra_of_asc_node": 156.0217,
        "meta_arg_of_pericenter": 356.7859,
        "meta_mean_anomaly": 180.9144,
        "meta_ephemeris_type": 0,
        "meta_classification_type": "U",
        "meta_norad_cat_id": 55268,
        "meta_element_set_no": 999,
        "meta_rev_at_epoch": 2141,
        "meta_bstar": 0,
        "meta_mean_motion_dot": 5.9e-07,
        "meta_mean_motion_ddot": 0,
        "tle_line1": "1 55268U 23009A   25342.24475682  .00000059  00000+0  00000+0 0  9996",
        "tle_line2": "2 55268  55.1046 156.0217 0003615 356.7859 180.9144  2.00555991 21410"
      },
      "geometry": {
        "type": "Point",
        "coordinates": [
          116.36867829281393,
          -42.37471966939034
        ]
      }
    },
    {
      "type": "Feature",
      "properties": {
        "norad_id": 56564,
        "name": "BEIDOU-3 G4 (C62)",
        "group": "gnss",
        "lat": 0.8331844654573197,
        "lon": 28.871075615600084,
        "alt_km": 35796.73560983214,
        "timestamp": "2025-12-10T09:57:44.943568+00:00",
        "meta_object_name": "BEIDOU-3 G4 (C62)",
        "meta_object_id": "2023-066A",
        "meta_epoch": "2025-12-10T04:27:25.280928",
        "meta_mean_motion": 1.00271334,
        "meta_eccentricity": 0.0002991,
        "meta_inclination": 0.8203,
        "meta_ra_of_asc_node": 301.8596,
        "meta_arg_of_pericenter": 234.7601,
        "meta_mean_anomaly": 129.4673,
        "meta_ephemeris_type": 0,
        "meta_classification_type": "U",
        "meta_norad_cat_id": 56564,
        "meta_element_set_no": 999,
        "meta_rev_at_epoch": 949,
        "meta_bstar": 0,
        "meta_mean_motion_dot": -1.08e-06,
        "meta_mean_motion_ddot": 0,
        "tle_line1": "1 56564U 23066A   25344.18570927 -.00000108  00000+0  00000+0 0  9998",
        "tle_line2": "2 56564   0.8203 301.8596 0002991 234.7601 129.4673  1.00271334  9492"
      },
      "geometry": {
        "type": "Point",
        "coordinates": [
          28.871075615600084,
          0.8331844654573197
        ]
      }
    },
    {
      "type": "Feature",
      "properties": {
        "norad_id": 56759,
        "name": "NVS-01 (IRNSS-1J)",
        "group": "gnss",
        "lat": 2.521732791263358,
        "lon": -1.6560666071125651,
        "alt_km": 35792.94308108652,
        "timestamp": "2025-12-10T09:57:44.943587+00:00",
        "meta_object_name": "NVS-01 (IRNSS-1J)",
        "meta_object_id": "2023-076A",
        "meta_epoch": "2025-12-09T14:54:38.529792",
        "meta_mean_motion": 1.00264712,
        "meta_eccentricity": 0.0008645,
        "meta_inclination": 2.6256,
        "meta_ra_of_asc_node": 251.712,
        "meta_arg_of_pericenter": 8.5657,
        "meta_mean_anomaly": 171.4195,
        "meta_ephemeris_type": 0,
        "meta_classification_type": "U",
        "meta_norad_cat_id": 56759,
        "meta_element_set_no": 999,
        "meta_rev_at_epoch": 921,
        "meta_bstar": 0,
        "meta_mean_motion_dot": -3.34e-06,
        "meta_mean_motion_ddot": 0,
        "tle_line1": "1 56759U 23076A   25343.62127928 -.00000334  00000+0  00000+0 0  9993",
        "tle_line2": "2 56759   2.6256 251.7120 0008645   8.5657 171.4195  1.00264712  9210"
      },
      "geometry": {
        "type": "Point",
        "coordinates": [
          -1.6560666071125651,
          2.521732791263358
        ]
      }
    },
    {
      "type": "Feature",
      "properties": {
        "norad_id": 57517,
        "name": "COSMOS 2569 (703K)",
        "group": "gnss",
        "lat": -25.82425796364819,
        "lon": -88.08774590769286,
        "alt_km": 19128.031677595023,
        "timestamp": "2025-12-10T09:57:44.943599+00:00",
        "meta_object_name": "COSMOS 2569 (703K)",
        "meta_object_id": "2023-114A",
        "meta_epoch": "2025-12-09T04:54:16.689312",
        "meta_mean_motion": 2.13103889,
        "meta_eccentricity": 0.0010394,
        "meta_inclination": 65.1923,
        "meta_ra_of_asc_node": 79.033,
        "meta_arg_of_pericenter": 287.0321,
        "meta_mean_anomaly": 72.8717,
        "meta_ephemeris_type": 0,
        "meta_classification_type": "U",
        "meta_norad_cat_id": 57517,
        "meta_element_set_no": 999,
        "meta_rev_at_epoch": 1821,
        "meta_bstar": 0,
        "meta_mean_motion_dot": -1.4e-07,
        "meta_mean_motion_ddot": 0,
        "tle_line1": "1 57517U 23114A   25343.20435983 -.00000014  00000+0  00000+0 0  9991",
        "tle_line2": "2 57517  65.1923  79.0330 0010394 287.0321  72.8717  2.13103889 18214"
      },
      "geometry": {
        "type": "Point",
        "coordinates": [
          -88.08774590769286,
          -25.82425796364819
        ]
      }
    },
    {
      "type": "Feature",
      "properties": {
        "norad_id": 58654,
        "name": "BEIDOU-3 M28 (C50)",
        "group": "gnss",
        "lat": 55.1033445415309,
        "lon": 147.6780657891606,
        "alt_km": 21528.180251319558,
        "timestamp": "2025-12-10T09:57:44.943610+00:00",
        "meta_object_name": "BEIDOU-3 M28 (C50)",
        "meta_object_id": "2023-207A",
        "meta_epoch": "2025-12-09T05:11:28.664736",
        "meta_mean_motion": 1.86229641,
        "meta_eccentricity": 0.0002291,
        "meta_inclination": 55.5815,
        "meta_ra_of_asc_node": 68.7207,
        "meta_arg_of_pericenter": 268.7348,
        "meta_mean_anomaly": 91.2612,
        "meta_ephemeris_type": 0,
        "meta_classification_type": "U",
        "meta_norad_cat_id": 58654,
        "meta_element_set_no": 999,
        "meta_rev_at_epoch": 1330,
        "meta_bstar": 0,
        "meta_mean_motion_dot": -4.9e-07,
        "meta_mean_motion_ddot": 0,
        "tle_line1": "1 58654U 23207A   25343.21630399 -.00000049  00000+0  00000+0 0  9994",
        "tle_line2": "2 58654  55.5815  68.7207 0002291 268.7348  91.2612  1.86229641 13308"
      },
      "geometry": {
        "type": "Point",
        "coordinates": [
          147.6780657891606,
          55.1033445415309
        ]
      }
    },
    {
      "type": "Feature",
      "properties": {
        "norad_id": 58655,
        "name": "BEIDOU-3 M26 (C48)",
        "group": "gnss",
        "lat": -31.559219296277263,
        "lon": -86.45778464255382,
        "alt_km": 21523.585013323456,
        "timestamp": "2025-12-10T09:57:44.943622+00:00",
        "meta_object_name": "BEIDOU-3 M26 (C48)",
        "meta_object_id": "2023-207B",
        "meta_epoch": "2025-12-09T13:13:20.106624",
        "meta_mean_motion": 1.86231165,
        "meta_eccentricity": 0.00037,
        "meta_inclination": 55.5839,
        "meta_ra_of_asc_node": 68.6957,
        "meta_arg_of_pericenter": 254.5617,
        "meta_mean_anomaly": 105.42,
        "meta_ephemeris_type": 0,
        "meta_classification_type": "U",
        "meta_norad_cat_id": 58655,
        "meta_element_set_no": 999,
        "meta_rev_at_epoch": 1329,
        "meta_bstar": 0,
        "meta_mean_motion_dot": -5.1e-07,
        "meta_mean_motion_ddot": 0,
        "tle_line1": "1 58655U 23207B   25343.55092716 -.00000051  00000+0  00000+0 0  9990",
        "tle_line2": "2 58655  55.5839  68.6957 0003700 254.5617 105.4200  1.86231165 13297"
      },
      "geometry": {
        "type": "Point",
        "coordinates": [
          -86.45778464255382,
          -31.559219296277263
        ]
      }
    },
    {
      "type": "Feature",
      "properties": {
        "norad_id": 59598,
        "name": "GSAT0225 (GALILEO 29)",
        "group": "gnss",
        "lat": -49.674151414581495,
        "lon": 50.79843423602456,
        "alt_km": 23230.482041958276,
        "timestamp": "2025-12-10T09:57:44.943634+00:00",
        "meta_object_name": "GSAT0225 (GALILEO 29)",
        "meta_object_id": "2024-079A",
        "meta_epoch": "2025-12-07T13:01:48.128160",
        "meta_mean_motion": 1.70474573,
        "meta_eccentricity": 0.0002046,
        "meta_inclination": 54.9986,
        "meta_ra_of_asc_node": 106.4402,
        "meta_arg_of_pericenter": 173.6326,
        "meta_mean_anomaly": 155.0404,
        "meta_ephemeris_type": 0,
        "meta_classification_type": "U",
        "meta_norad_cat_id": 59598,
        "meta_element_set_no": 999,
        "meta_rev_at_epoch": 1004,
        "meta_bstar": 0,
        "meta_mean_motion_dot": 7e-08,
        "meta_mean_motion_ddot": 0,
        "tle_line1": "1 59598U 24079A   25341.54291815  .00000007  00000+0  00000+0 0  9993",
        "tle_line2": "2 59598  54.9986 106.4402 0002046 173.6326 155.0404  1.70474573 10048"
      },
      "geometry": {
        "type": "Point",
        "coordinates": [
          50.79843423602456,
          -49.674151414581495
        ]
      }
    }
  ]
}